1 29155U 06018A   10021.28586571 -.00000070  00000-0  10000-3 0  9366
2 29155 000.4122 091.3051 0002764 163.4550 223.3002 01.00272299 13441